[
  {
    "CCSDS_OMM_VERS": "2.0",
    "COMMENT": "GENERATED VIA SPACE-TRACK.ORG API",
    "CREATION_DATE": "2021-12-04T02:39:20",
    "ORIGINATOR": "18 SPCS",
    "OBJECT_NAME": "TIROS 1",
    "OBJECT_ID": "1960-002B",
    "CENTER_NAME": "EARTH",
    "REF_FRAME": "TEME",
    "TIME_SYSTEM": "UTC",
    "MEAN_ELEMENT_THEORY": "SGP4",
    "EPOCH": "2021-12-03T19:47:54.862656",
    "MEAN_MOTION": "14.74485124",
    "ECCENTRICITY": "0.00241370",
    "INCLINATION": "48.3803",
    "RA_OF_ASC_NODE": "306.5386",
    "ARG_OF_PERICENTER": "357.3663",
    "MEAN_ANOMALY": "2.7118",
    "EPHEMERIS_TYPE": "0",
    "CLASSIFICATION_TYPE": "U",
    "NORAD_CAT_ID": "29",
    "ELEMENT_SET_NO": "999",
    "REV_AT_EPOCH": "29739",
    "BSTAR": "0.00003554300000",
    "MEAN_MOTION_DOT": "0.00000031",
    "MEAN_MOTION_DDOT": "0.0000000000000",
    "SEMIMAJOR_AXIS": "7024.923",
    "PERIOD": "97.661",
    "APOAPSIS": "663.744",
    "PERIAPSIS": "629.832",
    "OBJECT_TYPE": "PAYLOAD",
    "RCS_SIZE": "MEDIUM",
    "COUNTRY_CODE": "US",
    "LAUNCH_DATE": "1960-04-01",
    "SITE": "AFETR",
    "DECAY_DATE": null,
    "FILE": "3231910",
    "GP_ID": "191018522",
    "TLE_LINE0": "0 TIROS 1",
    "TLE_LINE1": "1 00029U 60002B   21337.82494054  .00000031  00000-0  35543-4 0  9999",
    "TLE_LINE2": "2 00029  48.3803 306.5386 0024137 357.3663   2.7118 14.74485124297399"
  },
  {
    "CCSDS_OMM_VERS": "2.0",
    "COMMENT": "GENERATED VIA SPACE-TRACK.ORG API",
    "CREATION_DATE": "2021-12-03T17:32:05",
    "ORIGINATOR": "18 SPCS",
    "OBJECT_NAME": "TRANSIT 2A",
    "OBJECT_ID": "1960-007A",
    "CENTER_NAME": "EARTH",
    "REF_FRAME": "TEME",
    "TIME_SYSTEM": "UTC",
    "MEAN_ELEMENT_THEORY": "SGP4",
    "EPOCH": "2021-12-03T12:28:33.998016",
    "MEAN_MOTION": "14.33753770",
    "ECCENTRICITY": "0.02623120",
    "INCLINATION": "66.6958",
    "RA_OF_ASC_NODE": "53.4348",
    "ARG_OF_PERICENTER": "286.4086",
    "MEAN_ANOMALY": "70.8329",
    "EPHEMERIS_TYPE": "0",
    "CLASSIFICATION_TYPE": "U",
    "NORAD_CAT_ID": "45",
    "ELEMENT_SET_NO": "999",
    "REV_AT_EPOCH": "14239",
    "BSTAR": "0.00003315300000",
    "MEAN_MOTION_DOT": "0.00000026",
    "MEAN_MOTION_DDOT": "0.0000000000000",
    "SEMIMAJOR_AXIS": "7157.348",
    "PERIOD": "100.436",
    "APOAPSIS": "966.959",
    "PERIAPSIS": "591.467",
    "OBJECT_TYPE": "PAYLOAD",
    "RCS_SIZE": "MEDIUM",
    "COUNTRY_CODE": "US",
    "LAUNCH_DATE": "1960-06-22",
    "SITE": "AFETR",
    "DECAY_DATE": null,
    "FILE": "3231740",
    "GP_ID": "190990836",
    "TLE_LINE0": "0 TRANSIT 2A",
    "TLE_LINE1": "1 00045U 60007A   21337.51983794  .00000026  00000-0  33153-4 0  9991",
    "TLE_LINE2": "2 00045  66.6958  53.4348 0262312 286.4086  70.8329 14.33753770142396"
  },
  {
    "CCSDS_OMM_VERS": "2.0",
    "COMMENT": "GENERATED VIA SPACE-TRACK.ORG API",
    "CREATION_DATE": "2021-12-03T17:32:05",
    "ORIGINATOR": "18 SPCS",
    "OBJECT_NAME": "SOLRAD 1 (GREB)",
    "OBJECT_ID": "1960-007B",
    "CENTER_NAME": "EARTH",
    "REF_FRAME": "TEME",
    "TIME_SYSTEM": "UTC",
    "MEAN_ELEMENT_THEORY": "SGP4",
    "EPOCH": "2021-12-03T13:32:01.474080",
    "MEAN_MOTION": "14.49477351",
    "ECCENTRICITY": "0.02024000",
    "INCLINATION": "66.6918",
    "RA_OF_ASC_NODE": "43.1573",
    "ARG_OF_PERICENTER": "93.1259",
    "MEAN_ANOMALY": "269.3028",
    "EPHEMERIS_TYPE": "0",
    "CLASSIFICATION_TYPE": "U",
    "NORAD_CAT_ID": "46",
    "ELEMENT_SET_NO": "999",
    "REV_AT_EPOCH": "21651",
    "BSTAR": "0.00004245700000",
    "MEAN_MOTION_DOT": "0.00000097",
    "MEAN_MOTION_DDOT": "0.0000000000000",
    "SEMIMAJOR_AXIS": "7105.493",
    "PERIOD": "99.346",
    "APOAPSIS": "871.173",
    "PERIAPSIS": "583.543",
    "OBJECT_TYPE": "PAYLOAD",
    "RCS_SIZE": "MEDIUM",
    "COUNTRY_CODE": "US",
    "LAUNCH_DATE": "1960-06-22",
    "SITE": "AFETR",
    "DECAY_DATE": null,
    "FILE": "3231740",
    "GP_ID": "190990084",
    "TLE_LINE0": "0 SOLRAD 1 (GREB)",
    "TLE_LINE1": "1 00046U 60007B   21337.56390595  .00000097  00000-0  42457-4 0  9993",
    "TLE_LINE2": "2 00046  66.6918  43.1573 0202400  93.1259 269.3028 14.49477351216518"
  },
  {
    "CCSDS_OMM_VERS": "2.0",
    "COMMENT": "GENERATED VIA SPACE-TRACK.ORG API",
    "CREATION_DATE": "2021-12-04T06:46:11",
    "ORIGINATOR": "18 SPCS",
    "OBJECT_NAME": "THOR ABLESTAR R\/B",
    "OBJECT_ID": "1960-007C",
    "CENTER_NAME": "EARTH",
    "REF_FRAME": "TEME",
    "TIME_SYSTEM": "UTC",
    "MEAN_ELEMENT_THEORY": "SGP4",
    "EPOCH": "2021-12-03T23:35:24.220608",
    "MEAN_MOTION": "14.42199258",
    "ECCENTRICITY": "0.02346860",
    "INCLINATION": "66.6641",
    "RA_OF_ASC_NODE": "165.6355",
    "ARG_OF_PERICENTER": "272.1176",
    "MEAN_ANOMALY": "85.3072",
    "EPHEMERIS_TYPE": "0",
    "CLASSIFICATION_TYPE": "U",
    "NORAD_CAT_ID": "47",
    "ELEMENT_SET_NO": "999",
    "REV_AT_EPOCH": "21219",
    "BSTAR": "0.00003664900000",
    "MEAN_MOTION_DOT": "0.00000054",
    "MEAN_MOTION_DDOT": "0.0000000000000",
    "SEMIMAJOR_AXIS": "7129.378",
    "PERIOD": "99.848",
    "APOAPSIS": "918.560",
    "PERIAPSIS": "583.927",
    "OBJECT_TYPE": "ROCKET BODY",
    "RCS_SIZE": "LARGE",
    "COUNTRY_CODE": "US",
    "LAUNCH_DATE": "1960-06-22",
    "SITE": "AFETR",
    "DECAY_DATE": null,
    "FILE": "3232044",
    "GP_ID": "191043246",
    "TLE_LINE0": "0 THOR ABLESTAR R\/B",
    "TLE_LINE1": "1    47U 60007C   21337.98291922  .00000054  00000-0  36649-4 0  9993",
    "TLE_LINE2": "2    47  66.6641 165.6355 0234686 272.1176  85.3072 14.42199258212193"
  },
  {
    "CCSDS_OMM_VERS": "2.0",
    "COMMENT": "GENERATED VIA SPACE-TRACK.ORG API",
    "CREATION_DATE": "2021-12-03T17:32:05",
    "ORIGINATOR": "18 SPCS",
    "OBJECT_NAME": "DELTA 1 R\/B",
    "OBJECT_ID": "1960-009B",
    "CENTER_NAME": "EARTH",
    "REF_FRAME": "TEME",
    "TIME_SYSTEM": "UTC",
    "MEAN_ELEMENT_THEORY": "SGP4",
    "EPOCH": "2021-12-03T11:37:42.203136",
    "MEAN_MOTION": "12.20117682",
    "ECCENTRICITY": "0.01131030",
    "INCLINATION": "47.2309",
    "RA_OF_ASC_NODE": "263.8146",
    "ARG_OF_PERICENTER": "117.0702",
    "MEAN_ANOMALY": "244.1679",
    "EPHEMERIS_TYPE": "0",
    "CLASSIFICATION_TYPE": "U",
    "NORAD_CAT_ID": "50",
    "ELEMENT_SET_NO": "999",
    "REV_AT_EPOCH": "73542",
    "BSTAR": "-0.00016256000000",
    "MEAN_MOTION_DOT": "-0.00000104",
    "MEAN_MOTION_DDOT": "0.0000000000000",
    "SEMIMAJOR_AXIS": "7970.166",
    "PERIOD": "118.021",
    "APOAPSIS": "1682.176",
    "PERIAPSIS": "1501.886",
    "OBJECT_TYPE": "ROCKET BODY",
    "RCS_SIZE": "MEDIUM",
    "COUNTRY_CODE": "US",
    "LAUNCH_DATE": "1960-08-12",
    "SITE": "AFETR",
    "DECAY_DATE": null,
    "FILE": "3231740",
    "GP_ID": "190990586",
    "TLE_LINE0": "0 DELTA 1 R\/B",
    "TLE_LINE1": "1 00050U 60009B   21337.48451624 -.00000104  00000-0 -16256-3 0  9990",
    "TLE_LINE2": "2 00050  47.2309 263.8146 0113103 117.0702 244.1679 12.20117682735423"
  },
  {
    "CCSDS_OMM_VERS": "2.0",
    "COMMENT": "GENERATED VIA SPACE-TRACK.ORG API",
    "CREATION_DATE": "2021-12-03T17:32:05",
    "ORIGINATOR": "18 SPCS",
    "OBJECT_NAME": "ECHO 1 DEB (METAL OBJ)",
    "OBJECT_ID": "1960-009C",
    "CENTER_NAME": "EARTH",
    "REF_FRAME": "TEME",
    "TIME_SYSTEM": "UTC",
    "MEAN_ELEMENT_THEORY": "SGP4",
    "EPOCH": "2021-12-03T11:22:03.534528",
    "MEAN_MOTION": "12.18273009",
    "ECCENTRICITY": "0.01049280",
    "INCLINATION": "47.2107",
    "RA_OF_ASC_NODE": "135.2955",
    "ARG_OF_PERICENTER": "310.9718",
    "MEAN_ANOMALY": "48.2029",
    "EPHEMERIS_TYPE": "0",
    "CLASSIFICATION_TYPE": "U",
    "NORAD_CAT_ID": "51",
    "ELEMENT_SET_NO": "999",
    "REV_AT_EPOCH": "72919",
    "BSTAR": "0.00006667800000",
    "MEAN_MOTION_DOT": "-0.00000077",
    "MEAN_MOTION_DDOT": "0.0000000000000",
    "SEMIMAJOR_AXIS": "7978.209",
    "PERIOD": "118.200",
    "APOAPSIS": "1683.788",
    "PERIAPSIS": "1516.361",
    "OBJECT_TYPE": "DEBRIS",
    "RCS_SIZE": "MEDIUM",
    "COUNTRY_CODE": "US",
    "LAUNCH_DATE": "1960-08-12",
    "SITE": "AFETR",
    "DECAY_DATE": null,
    "FILE": "3231740",
    "GP_ID": "190991336",
    "TLE_LINE0": "0 ECHO 1 DEB (METAL OBJ)",
    "TLE_LINE1": "1 00051U 60009C   21337.47365202 -.00000077  00000-0  66678-4 0  9998",
    "TLE_LINE2": "2 00051  47.2107 135.2955 0104928 310.9718  48.2029 12.18273009729198"
  },
  {
    "CCSDS_OMM_VERS": "2.0",
    "COMMENT": "GENERATED VIA SPACE-TRACK.ORG API",
    "CREATION_DATE": "2021-12-03T17:32:05",
    "ORIGINATOR": "18 SPCS",
    "OBJECT_NAME": "ECHO 1 DEB (METAL OBJ)",
    "OBJECT_ID": "1960-009E",
    "CENTER_NAME": "EARTH",
    "REF_FRAME": "TEME",
    "TIME_SYSTEM": "UTC",
    "MEAN_ELEMENT_THEORY": "SGP4",
    "EPOCH": "2021-12-03T11:08:42.811296",
    "MEAN_MOTION": "12.17265825",
    "ECCENTRICITY": "0.01005310",
    "INCLINATION": "47.2787",
    "RA_OF_ASC_NODE": "52.1635",
    "ARG_OF_PERICENTER": "218.9423",
    "MEAN_ANOMALY": "140.4093",
    "EPHEMERIS_TYPE": "0",
    "CLASSIFICATION_TYPE": "U",
    "NORAD_CAT_ID": "53",
    "ELEMENT_SET_NO": "999",
    "REV_AT_EPOCH": "73361",
    "BSTAR": "-0.00033151000000",
    "MEAN_MOTION_DOT": "-0.00000118",
    "MEAN_MOTION_DDOT": "0.0000000000000",
    "SEMIMAJOR_AXIS": "7982.610",
    "PERIOD": "118.298",
    "APOAPSIS": "1684.725",
    "PERIAPSIS": "1524.225",
    "OBJECT_TYPE": "DEBRIS",
    "RCS_SIZE": "MEDIUM",
    "COUNTRY_CODE": "US",
    "LAUNCH_DATE": "1960-08-12",
    "SITE": "AFETR",
    "DECAY_DATE": null,
    "FILE": "3231740",
    "GP_ID": "190989835",
    "TLE_LINE0": "0 ECHO 1 DEB (METAL OBJ)",
    "TLE_LINE1": "1 00053U 60009E   21337.46438439 -.00000118  00000-0 -33151-3 0  9998",
    "TLE_LINE2": "2 00053  47.2787  52.1635 0100531 218.9423 140.4093 12.17265825733616"
  }
]
